IRIDIUM 116             
1 43072U 17083C   25186.18637879  .00000027  00000+0  25037-5 0  9996
2 43072  86.3969 107.0883 0001959  81.1901 278.9516 14.34217742394436
IRIDIUM 130             
1 43073U 17083D   25185.87559201 -.00000001  00000+0 -74728-5 0  9999
2 43073  86.3977 107.4596 0001928  74.0624 286.0784 14.34217458394330
IRIDIUM 151             
1 43074U 17083E   25185.85022168  .00000020  00000+0 -72155-7 0  9999
2 43074  86.3971 107.2788 0001973  83.0775 277.0645 14.34217411394350
IRIDIUM 134             
1 43075U 17083F   25185.88827744 -.00000022  00000+0 -14913-4 0  9994
2 43075  86.3972 107.2661 0002020  75.4642 284.6778 14.34217429394321
IRIDIUM 137             
1 43076U 17083G   25185.83119299  .00000008  00000+0 -40780-5 0  9994
2 43076  86.3973 107.3756 0001526  94.7821 265.3549 14.34217510394381
IRIDIUM 141             
1 43077U 17083H   25185.82485162  .00000151  00000+0  46933-4 0  9992
2 43077  86.3974 107.2284 0002273  85.2069 274.9386 14.34213120394385
IRIDIUM 153             
1 43078U 17083J   25185.77703148  .00000008  00000+0 -42222-5 0  9994
2 43078  86.3952  75.7129 0002637  82.8331 277.3164 14.34217545395486
IRIDIUM 131             
1 43079U 17083K   25186.30054654  .00000020  00000+0  95546-7 0  9998
2 43079  86.3975 107.1927 0002203  87.5004 272.6444 14.34217600394385
